{
  "type": "FeatureCollection",
  "features": [
    {
      "type": "Feature",
      "properties": {
        "norad_id": 22490,
        "name": "SCD 1",
        "group": "resource",
        "lat": -0.06276324001085593,
        "lon": -87.89639325373102,
        "alt_km": 709.5254460451724,
        "timestamp": "2025-12-13T18:50:04.084668+00:00",
        "meta_object_name": "SCD 1",
        "meta_object_id": "1993-009B",
        "meta_epoch": "2025-12-13T04:33:38.312064",
        "meta_mean_motion": 14.45999655,
        "meta_eccentricity": 0.00418149,
        "meta_inclination": 24.9698,
        "meta_ra_of_asc_node": 275.908,
        "meta_arg_of_pericenter": 329.8154,
        "meta_mean_anomaly": 167.6092,
        "meta_ephemeris_type": 0,
        "meta_classification_type": "U",
        "meta_norad_cat_id": 22490,
        "meta_element_set_no": 999,
        "meta_rev_at_epoch": 73416,
        "meta_bstar": 0.00014602471,
        "meta_mean_motion_dot": 7.2e-06,
        "meta_mean_motion_ddot": 0,
        "tle_line1": "1 22490U 93009B   25347.19002676  .00000720  00000+0  14602-3 0  9994",
        "tle_line2": "2 22490  24.9698 275.9080 0041814 329.8154 167.6092 14.45999655734167"
      },
      "geometry": {
        "type": "Point",
        "coordinates": [
          -87.89639325373102,
          -0.06276324001085593
        ]
      }
    },
    {
      "type": "Feature",
      "properties": {
        "norad_id": 25397,
        "name": "TECHSAT 1B (GO-32)",
        "group": "resource",
        "lat": 54.16698942043173,
        "lon": 163.6876603816366,
        "alt_km": 804.9164865229841,
        "timestamp": "2025-12-13T18:50:04.084695+00:00",
        "meta_object_name": "TECHSAT 1B (GO-32)",
        "meta_object_id": "1998-043D",
        "meta_epoch": "2025-12-13T04:45:49.563648",
        "meta_mean_motion": 14.24377217,
        "meta_eccentricity": 0.00020392,
        "meta_inclination": 98.992,
        "meta_ra_of_asc_node": 330.4211,
        "meta_arg_of_pericenter": 56.6374,
        "meta_mean_anomaly": 303.4999,
        "meta_ephemeris_type": 0,
        "meta_classification_type": "U",
        "meta_norad_cat_id": 25397,
        "meta_element_set_no": 999,
        "meta_rev_at_epoch": 42485,
        "meta_bstar": 9.0488348e-05,
        "meta_mean_motion_dot": 1.63e-06,
        "meta_mean_motion_ddot": 0,
        "tle_line1": "1 25397U 98043D   25347.19849032  .00000163  00000+0  90488-4 0  9999",
        "tle_line2": "2 25397  98.9920 330.4211 0002039  56.6374 303.4999 14.24377217424852"
      },
      "geometry": {
        "type": "Point",
        "coordinates": [
          163.6876603816366,
          54.16698942043173
        ]
      }
    },
    {
      "type": "Feature",
      "properties": {
        "norad_id": 25504,
        "name": "SCD 2",
        "group": "resource",
        "lat": 12.085730976936045,
        "lon": 162.818373716961,
        "alt_km": 731.9402317957038,
        "timestamp": "2025-12-13T18:50:04.084711+00:00",
        "meta_object_name": "SCD 2",
        "meta_object_id": "1998-060A",
        "meta_epoch": "2025-12-12T17:56:46.046688",
        "meta_mean_motion": 14.45423471,
        "meta_eccentricity": 0.00166549,
        "meta_inclination": 24.9933,
        "meta_ra_of_asc_node": 141.8465,
        "meta_arg_of_pericenter": 313.7297,
        "meta_mean_anomaly": 68.7779,
        "meta_ephemeris_type": 0,
        "meta_classification_type": "U",
        "meta_norad_cat_id": 25504,
        "meta_element_set_no": 999,
        "meta_rev_at_epoch": 43332,
        "meta_bstar": 0.00011955231,
        "meta_mean_motion_dot": 6.1e-06,
        "meta_mean_motion_ddot": 0,
        "tle_line1": "1 25504U 98060A   25346.74775517  .00000610  00000+0  11955-3 0  9992",
        "tle_line2": "2 25504  24.9933 141.8465 0016654 313.7297  68.7779 14.45423471433325"
      },
      "geometry": {
        "type": "Point",
        "coordinates": [
          162.818373716961,
          12.085730976936045
        ]
      }
    },
    {
      "type": "Feature",
      "properties": {
        "norad_id": 25757,
        "name": "DLR-TUBSAT",
        "group": "resource",
        "lat": 81.11045731629324,
        "lon": -104.57628978902001,
        "alt_km": 712.4773488078126,
        "timestamp": "2025-12-13T18:50:04.084724+00:00",
        "meta_object_name": "DLR-TUBSAT",
        "meta_object_id": "1999-029B",
        "meta_epoch": "2025-12-13T06:51:21.121632",
        "meta_mean_motion": 14.52358092,
        "meta_eccentricity": 0.00139401,
        "meta_inclination": 98.6564,
        "meta_ra_of_asc_node": 331.8162,
        "meta_arg_of_pericenter": 191.1187,
        "meta_mean_anomaly": 168.9701,
        "meta_ephemeris_type": 0,
        "meta_classification_type": "U",
        "meta_norad_cat_id": 25757,
        "meta_element_set_no": 999,
        "meta_rev_at_epoch": 40626,
        "meta_bstar": 7.445849e-05,
        "meta_mean_motion_dot": 2.55e-06,
        "meta_mean_motion_ddot": 0,
        "tle_line1": "1 25757U 99029B   25347.28566113  .00000255  00000+0  74458-4 0  9991",
        "tle_line2": "2 25757  98.6564 331.8162 0013940 191.1187 168.9701 14.52358092406264"
      },
      "geometry": {
        "type": "Point",
        "coordinates": [
          -104.57628978902001,
          81.11045731629324
        ]
      }
    },
    {
      "type": "Feature",
      "properties": {
        "norad_id": 25994,
        "name": "TERRA",
        "group": "resource",
        "lat": -3.522743113916492,
        "lon": -141.06355264671774,
        "alt_km": 693.7687227082633,
        "timestamp": "2025-12-13T18:50:04.084736+00:00",
        "meta_object_name": "TERRA",
        "meta_object_id": "1999-068A",
        "meta_epoch": "2025-12-13T06:39:55.450368",
        "meta_mean_motion": 14.60903225,
        "meta_eccentricity": 0.00036061,
        "meta_inclination": 97.975,
        "meta_ra_of_asc_node": 38.9425,
        "meta_arg_of_pericenter": 93.4054,
        "meta_mean_anomaly": 304.908,
        "meta_ephemeris_type": 0,
        "meta_classification_type": "U",
        "meta_norad_cat_id": 25994,
        "meta_element_set_no": 999,
        "meta_rev_at_epoch": 38246,
        "meta_bstar": 0.00017670249,
        "meta_mean_motion_dot": 8.2e-06,
        "meta_mean_motion_ddot": 0,
        "tle_line1": "1 25994U 99068A   25347.27772512  .00000820  00000+0  17670-3 0  9998",
        "tle_line2": "2 25994  97.9750  38.9425 0003606  93.4054 304.9080 14.60903225382468"
      },
      "geometry": {
        "type": "Point",
        "coordinates": [
          -141.06355264671774,
          -3.522743113916492
        ]
      }
    },
    {
      "type": "Feature",
      "properties": {
        "norad_id": 27004,
        "name": "MAROC-TUBSAT",
        "group": "resource",
        "lat": -11.475001868708558,
        "lon": -25.76103375411001,
        "alt_km": 997.0603810727671,
        "timestamp": "2025-12-13T18:50:04.084748+00:00",
        "meta_object_name": "MAROC-TUBSAT",
        "meta_object_id": "2001-056D",
        "meta_epoch": "2025-12-13T07:43:28.564032",
        "meta_mean_motion": 13.70252919,
        "meta_eccentricity": 0.00191036,
        "meta_inclination": 99.7912,
        "meta_ra_of_asc_node": 155.777,
        "meta_arg_of_pericenter": 258.5926,
        "meta_mean_anomaly": 170.8262,
        "meta_ephemeris_type": 0,
        "meta_classification_type": "U",
        "meta_norad_cat_id": 27004,
        "meta_element_set_no": 999,
        "meta_rev_at_epoch": 20073,
        "meta_bstar": 4.7871362e-05,
        "meta_mean_motion_dot": -4e-08,
        "meta_mean_motion_ddot": 0,
        "tle_line1": "1 27004U 01056D   25347.32185838 -.00000004  00000+0  47871-4 0  9999",
        "tle_line2": "2 27004  99.7912 155.7770 0019103 258.5926 170.8262 13.70252919200732"
      },
      "geometry": {
        "type": "Point",
        "coordinates": [
          -25.76103375411001,
          -11.475001868708558
        ]
      }
    },
    {
      "type": "Feature",
      "properties": {
        "norad_id": 27424,
        "name": "AQUA",
        "group": "resource",
        "lat": 60.72112450182243,
        "lon": -66.6065503888045,
        "alt_km": 680.9029553109203,
        "timestamp": "2025-12-13T18:50:04.084765+00:00",
        "meta_object_name": "AQUA",
        "meta_object_id": "2002-022A",
        "meta_epoch": "2025-12-13T07:47:38.774112",
        "meta_mean_motion": 14.61812555,
        "meta_eccentricity": 0.00011513,
        "meta_inclination": 98.4037,
        "meta_ra_of_asc_node": 308.2133,
        "meta_arg_of_pericenter": 114.819,
        "meta_mean_anomaly": 47.6819,
        "meta_ephemeris_type": 0,
        "meta_classification_type": "U",
        "meta_norad_cat_id": 27424,
        "meta_element_set_no": 999,
        "meta_rev_at_epoch": 25611,
        "meta_bstar": 0.00040327894,
        "meta_mean_motion_dot": 1.965e-05,
        "meta_mean_motion_ddot": 0,
        "tle_line1": "1 27424U 02022A   25347.32475433  .00001965  00000+0  40328-3 0  9997",
        "tle_line2": "2 27424  98.4037 308.2133 0001151 114.8190  47.6819 14.61812555256112"
      },
      "geometry": {
        "type": "Point",
        "coordinates": [
          -66.6065503888045,
          60.72112450182243
        ]
      }
    }
  ]
}